{"fetched_at":"2026-03-29T16:36:15Z","count":15609,"tles":[{"name":"KUIPER-00225","line1":"1 67784U 26030W   26087.81946649  .00029698  00000+0  82760-3 0  9992","line2":"2 67784  51.8823 126.7959 0005114  90.2631 269.8941 15.36524802  8038","category":"Other"}]}